[{"OBJECT_NAME":"STARLINK-31253","OBJECT_ID":"2024-017E","EPOCH":"2026-03-09T15:43:31.614528","MEAN_MOTION":15.30239664,"ECCENTRICITY":9.871e-5,"INCLINATION":53.16,"RA_OF_ASC_NODE":204.287,"ARG_OF_PERICENTER":73.766,"MEAN_ANOMALY":286.3449,"EPHEMERIS_TYPE":0,"CLASSIFICATION_TYPE":"U","NORAD_CAT_ID":58830,"ELEMENT_SET_NO":999,"REV_AT_EPOCH":12005,"BSTAR":-4.3020246e-5,"MEAN_MOTION_DOT":-1.635e-5,"MEAN_MOTION_DDOT":0},{"OBJECT_NAME":"OBJECT H","OBJECT_ID":"2025-055H","EPOCH":"2026-03-09T23:29:50.051328","MEAN_MOTION":15.30330066,"ECCENTRICITY":0.00075967,"INCLINATION":97.636,"RA_OF_ASC_NODE":211.9572,"ARG_OF_PERICENTER":140.4354,"MEAN_ANOMALY":219.7441,"EPHEMERIS_TYPE":0,"CLASSIFICATION_TYPE":"U","NORAD_CAT_ID":63298,"ELEMENT_SET_NO":999,"REV_AT_EPOCH":5423,"BSTAR":0.0015582864,"MEAN_MOTION_DOT":0.00045901,"MEAN_MOTION_DDOT":0}]
